
# Worst residual: 3.24 km
# MJD 58457.000000 (2018 Dec  5  0:00)
1964-040B = NORAD 00837 = Vela 2B
1 00837U 64040B   18339.49919926  .00000000  00000-0  00000-0 0  2617
2 00837 029.8117 193.4912 7519515 300.1948 157.1300 00.24008549    04

# Worst residual: 3.81 km
# MJD 58458.000000 (2018 Dec  6  0:00)
1964-040B = NORAD 00837 = Vela 2B
1 00837U 64040B   18340.49919926  .00000000  00000-0  00000-0 0  2619
2 00837 029.8107 193.4657 7512755 300.1997 243.5945 00.24000651    03

# Worst residual: 19.79 km
# MJD 58459.000000 (2018 Dec  7  0:00)
1964-040B = NORAD 00837 = Vela 2B
1 00837U 64040B   18341.49919926  .00000000  00000-0  00000-0 0  2610
2 00837 029.8117 193.4088 7504931 300.2480 329.9414 00.24023006    06

# Worst residual: 29.78 km
# MJD 58460.000000 (2018 Dec  8  0:00)
1964-040B = NORAD 00837 = Vela 2B
1 00837U 64040B   18342.49919926  .00000000  00000-0  00000-0 0  2611
2 00837 029.8217 193.3023 7504019 300.2463 056.4647 00.24042079    04

# Worst residual: 0.92 km
# MJD 58461.000000 (2018 Dec  9  0:00)
1964-040B = NORAD 00837 = Vela 2B
1 00837U 64040B   18343.49919926  .00000000  00000-0  00000-0 0  2612
2 00837 029.8515 193.1223 7502990 300.4406 142.7677 00.24007501    03

# Worst residual: 5.68 km
# MJD 58462.000000 (2018 Dec 10  0:00)
1964-040B = NORAD 00837 = Vela 2B
1 00837U 64040B   18344.49919926  .00000000  00000-0  00000-0 0  2613
2 00837 029.8705 193.0387 7500894 300.4876 229.3038 00.24008810    03

# Worst residual: 9.36 km
# MJD 58463.000000 (2018 Dec 11  0:00)
1964-040B = NORAD 00837 = Vela 2B
1 00837U 64040B   18345.49919926  .00000000  00000-0  00000-0 0  2614
2 00837 029.9053 192.9329 7501105 300.5634 315.8338 00.23999642    08

# Worst residual: 16.94 km
# MJD 58464.000000 (2018 Dec 12  0:00)
1964-040B = NORAD 00837 = Vela 2B
1 00837U 64040B   18346.49919926  .00000000  00000-0  00000-0 0  2615
2 00837 029.9242 192.8730 7499471 300.6279 042.2164 00.23977423    02

# Worst residual: 5.45 km
# MJD 58465.000000 (2018 Dec 13  0:00)
1964-040B = NORAD 00837 = Vela 2B
1 00837U 64040B   18347.49919926  .00000000  00000-0  00000-0 0  2616
2 00837 029.9448 192.7419 7492506 300.7165 128.7296 00.23997844    05

# Worst residual: 4.70 km
# MJD 58466.000000 (2018 Dec 14  0:00)
1964-040B = NORAD 00837 = Vela 2B
1 00837U 64040B   18348.49919926  .00000000  00000-0  00000-0 0  2617
2 00837 029.9802 192.6072 7485919 300.8022 215.2484 00.23994195    03

# Worst residual: 16.42 km
# MJD 58467.000000 (2018 Dec 15  0:00)
1964-040B = NORAD 00837 = Vela 2B
1 00837U 64040B   18349.49919926  .00000000  00000-0  00000-0 0  2618
2 00837 030.0519 192.4292 7476205 300.9536 301.5293 00.24002834    00

# Worst residual: 14.00 km
# MJD 58468.000000 (2018 Dec 16  0:00)
1964-040B = NORAD 00837 = Vela 2B
1 00837U 64040B   18350.49919926  .00000000  00000-0  00000-0 0  2610
2 00837 030.0964 192.3337 7471696 301.0064 027.9096 00.23979279    05

# Worst residual: 8.90 km
# MJD 58469.000000 (2018 Dec 17  0:00)
1964-040B = NORAD 00837 = Vela 2B
1 00837U 64040B   18351.49919926  .00000000  00000-0  00000-0 0  2611
2 00837 030.1195 192.2490 7468615 301.0509 114.3497 00.23994786    08

# Worst residual: 7.01 km
# MJD 58470.000000 (2018 Dec 18  0:00)
1964-040B = NORAD 00837 = Vela 2B
1 00837U 64040B   18352.49919926  .00000000  00000-0  00000-0 0  2612
2 00837 030.1447 192.1464 7471913 301.0806 200.9703 00.24016838    09

# Worst residual: 10.69 km
# MJD 58471.000000 (2018 Dec 19  0:00)
1964-040B = NORAD 00837 = Vela 2B
1 00837U 64040B   18353.49919926  .00000000  00000-0  00000-0 0  2613
2 00837 030.1642 192.0581 7470783 301.1551 287.4690 00.24024618    07

# Worst residual: 40.34 km
# MJD 58472.000000 (2018 Dec 20  0:00)
1964-040B = NORAD 00837 = Vela 2B
1 00837U 64040B   18354.49919926  .00000000  00000-0  00000-0 0  2614
2 00837 030.1797 191.9775 7457090 301.1527 013.9605 00.24077173    02

# Worst residual: 14.59 km
# MJD 58473.000000 (2018 Dec 21  0:00)
1964-040B = NORAD 00837 = Vela 2B
1 00837U 64040B   18355.49919926  .00000000  00000-0  00000-0 0  2615
2 00837 030.2046 191.8249 7465910 301.2634 100.2638 00.24010062    05

# Worst residual: 4.22 km
# MJD 58474.000000 (2018 Dec 22  0:00)
1964-040B = NORAD 00837 = Vela 2B
1 00837U 64040B   18356.49919926  .00000000  00000-0  00000-0 0  2616
2 00837 030.2406 191.6723 7463584 301.4360 186.4709 00.23995643    04

# Worst residual: 2.96 km
# MJD 58475.000000 (2018 Dec 23  0:00)
1964-040B = NORAD 00837 = Vela 2B
1 00837U 64040B   18357.49919926  .00000000  00000-0  00000-0 0  2617
2 00837 030.2611 191.5868 7462077 301.5255 272.8174 00.24004719    03

# Worst residual: 19.01 km
# MJD 58476.000000 (2018 Dec 24  0:00)
1964-040B = NORAD 00837 = Vela 2B
1 00837U 64040B   18358.49919926  .00000000  00000-0  00000-0 0  2618
2 00837 030.2927 191.4942 7459030 301.6213 359.2577 00.24024914    01

# Worst residual: 5.79 km
# MJD 58477.000000 (2018 Dec 25  0:00)
1964-040B = NORAD 00837 = Vela 2B
1 00837U 64040B   18359.49919926  .00000000  00000-0  00000-0 0  2619
2 00837 030.3097 191.3656 7457455 301.7326 085.6707 00.24003295    00

# Worst residual: 5.93 km
# MJD 58478.000000 (2018 Dec 26  0:00)
1964-040B = NORAD 00837 = Vela 2B
1 00837U 64040B   18360.49919926  .00000000  00000-0  00000-0 0  2611
2 00837 030.3215 191.3346 7453803 301.7880 171.9370 00.23989081    06

# Worst residual: 5.58 km
# MJD 58479.000000 (2018 Dec 27  0:00)
1964-040B = NORAD 00837 = Vela 2B
1 00837U 64040B   18361.49919926  .00000000  00000-0  00000-0 0  2612
2 00837 030.3177 191.3137 7453729 301.8381 258.1972 00.24003950    04

# Worst residual: 12.99 km
# MJD 58480.000000 (2018 Dec 28  0:00)
1964-040B = NORAD 00837 = Vela 2B
1 00837U 64040B   18362.49919926  .00000000  00000-0  00000-0 0  2613
2 00837 030.3501 191.2220 7447494 301.9091 344.5815 00.24020740    00

# Worst residual: 8.77 km
# MJD 58481.000000 (2018 Dec 29  0:00)
1964-040B = NORAD 00837 = Vela 2B
1 00837U 64040B   18363.49919926  .00000000  00000-0  00000-0 0  2614
2 00837 030.3745 191.1389 7444440 302.0114 070.9674 00.23979269    02

# Worst residual: 1.66 km
# MJD 58482.000000 (2018 Dec 30  0:00)
1964-040B = NORAD 00837 = Vela 2B
1 00837U 64040B   18364.49919926  .00000000  00000-0  00000-0 0  2615
2 00837 030.3951 191.0662 7440301 302.0418 157.4480 00.23992839    07
